{
  "type": "FeatureCollection",
  "features": [
    {
      "type": "Feature",
      "properties": {
        "norad_id": 31979,
        "name": "FENGYUN 1C DEB",
        "group": "fengyun-1c-debris",
        "lat": -68.91814767383025,
        "lon": -132.81762161298087,
        "alt_km": 876.3729020676237,
        "timestamp": "2025-12-05T18:53:13.567010+00:00",
        "meta_object_name": "FENGYUN 1C DEB",
        "meta_object_id": "1999-025CPG",
        "meta_epoch": "2025-12-02T12:28:35.492736",
        "meta_mean_motion": 13.69187291,
        "meta_eccentricity": 0.02646506,
        "meta_inclination": 99.3777,
        "meta_ra_of_asc_node": 69.3826,
        "meta_arg_of_pericenter": 307.5764,
        "meta_mean_anomaly": 50.1611,
        "meta_ephemeris_type": 0,
        "meta_classification_type": "U",
        "meta_norad_cat_id": 31979,
        "meta_element_set_no": 999,
        "meta_rev_at_epoch": 57772,
        "meta_bstar": 0.003510695,
        "meta_mean_motion_dot": 3.844e-05,
        "meta_mean_motion_ddot": 0,
        "tle_line1": "1 31979U 99025CPG 25336.51985524  .00003844  00000+0  35107-2 0  9998",
        "tle_line2": "2 31979  99.3777  69.3826 0264650 307.5764  50.1611 13.69187291577721"
      },
      "geometry": {
        "type": "Point",
        "coordinates": [
          -132.81762161298087,
          -68.91814767383025
        ]
      }
    },
    {
      "type": "Feature",
      "properties": {
        "norad_id": 31980,
        "name": "FENGYUN 1C DEB",
        "group": "fengyun-1c-debris",
        "lat": 36.03504472089777,
        "lon": -107.56380554850226,
        "alt_km": 821.218754806634,
        "timestamp": "2025-12-05T18:53:13.567020+00:00",
        "meta_object_name": "FENGYUN 1C DEB",
        "meta_object_id": "1999-025CPH",
        "meta_epoch": "2025-11-07T01:33:48.122784",
        "meta_mean_motion": 13.32082371,
        "meta_eccentricity": 0.04288031,
        "meta_inclination": 97.6138,
        "meta_ra_of_asc_node": 45.4675,
        "meta_arg_of_pericenter": 204.355,
        "meta_mean_anomaly": 153.6774,
        "meta_ephemeris_type": 0,
        "meta_classification_type": "U",
        "meta_norad_cat_id": 31980,
        "meta_element_set_no": 999,
        "meta_rev_at_epoch": 89195,
        "meta_bstar": 0.0011351544,
        "meta_mean_motion_dot": 8.87e-06,
        "meta_mean_motion_ddot": 0,
        "tle_line1": "1 31980U 99025CPH 25311.06514031  .00000887  00000+0  11352-2 0  9994",
        "tle_line2": "2 31980  97.6138  45.4675 0428803 204.3550 153.6774 13.32082371891957"
      },
      "geometry": {
        "type": "Point",
        "coordinates": [
          -107.56380554850226,
          36.03504472089777
        ]
      }
    },
    {
      "type": "Feature",
      "properties": {
        "norad_id": 31984,
        "name": "FENGYUN 1C DEB",
        "group": "fengyun-1c-debris",
        "lat": 25.064341490490524,
        "lon": -19.71849728488081,
        "alt_km": 847.6687901912828,
        "timestamp": "2025-12-05T18:53:13.567030+00:00",
        "meta_object_name": "FENGYUN 1C DEB",
        "meta_object_id": "1999-025CPM",
        "meta_epoch": "2025-12-02T19:53:15.322848",
        "meta_mean_motion": 14.2293256,
        "meta_eccentricity": 0.00625309,
        "meta_inclination": 98.5577,
        "meta_ra_of_asc_node": 341.445,
        "meta_arg_of_pericenter": 256.5759,
        "meta_mean_anomaly": 102.8445,
        "meta_ephemeris_type": 0,
        "meta_classification_type": "U",
        "meta_norad_cat_id": 31984,
        "meta_element_set_no": 999,
        "meta_rev_at_epoch": 94232,
        "meta_bstar": 0.00049073387,
        "meta_mean_motion_dot": 1.083e-05,
        "meta_mean_motion_ddot": 0,
        "tle_line1": "1 31984U 99025CPM 25336.82864957  .00001083  00000+0  49073-3 0  9995",
        "tle_line2": "2 31984  98.5577 341.4450 0062530 256.5759 102.8445 14.22932560942322"
      },
      "geometry": {
        "type": "Point",
        "coordinates": [
          -19.71849728488081,
          25.064341490490524
        ]
      }
    },
    {
      "type": "Feature",
      "properties": {
        "norad_id": 31985,
        "name": "FENGYUN 1C DEB",
        "group": "fengyun-1c-debris",
        "lat": 21.925739457511956,
        "lon": 64.7988227835101,
        "alt_km": 850.4742507260753,
        "timestamp": "2025-12-05T18:53:13.567039+00:00",
        "meta_object_name": "FENGYUN 1C DEB",
        "meta_object_id": "1999-025CPN",
        "meta_epoch": "2025-11-24T23:55:40.651392",
        "meta_mean_motion": 14.22924304,
        "meta_eccentricity": 0.01509495,
        "meta_inclination": 98.2192,
        "meta_ra_of_asc_node": 231.3867,
        "meta_arg_of_pericenter": 299.2224,
        "meta_mean_anomaly": 59.3931,
        "meta_ephemeris_type": 0,
        "meta_classification_type": "U",
        "meta_norad_cat_id": 31985,
        "meta_element_set_no": 999,
        "meta_rev_at_epoch": 95358,
        "meta_bstar": 0.0005103033,
        "meta_mean_motion_dot": 1.248e-05,
        "meta_mean_motion_ddot": 0,
        "tle_line1": "1 31985U 99025CPN 25328.99699828  .00001248  00000+0  51030-3 0  9997",
        "tle_line2": "2 31985  98.2192 231.3867 0150949 299.2224  59.3931 14.22924304953588"
      },
      "geometry": {
        "type": "Point",
        "coordinates": [
          64.7988227835101,
          21.925739457511956
        ]
      }
    },
    {
      "type": "Feature",
      "properties": {
        "norad_id": 31987,
        "name": "FENGYUN 1C DEB",
        "group": "fengyun-1c-debris",
        "lat": 64.54592101903306,
        "lon": 152.48826912350629,
        "alt_km": 720.4576504885281,
        "timestamp": "2025-12-05T18:53:13.567049+00:00",
        "meta_object_name": "FENGYUN 1C DEB",
        "meta_object_id": "1999-025CPQ",
        "meta_epoch": "2025-12-05T03:40:35.279040",
        "meta_mean_motion": 14.44831177,
        "meta_eccentricity": 0.0051063,
        "meta_inclination": 99.0385,
        "meta_ra_of_asc_node": 312.2778,
        "meta_arg_of_pericenter": 180.3175,
        "meta_mean_anomaly": 239.4113,
        "meta_ephemeris_type": 0,
        "meta_classification_type": "U",
        "meta_norad_cat_id": 31987,
        "meta_element_set_no": 999,
        "meta_rev_at_epoch": 96260,
        "meta_bstar": 0.0021803536,
        "meta_mean_motion_dot": 7.661e-05,
        "meta_mean_motion_ddot": 0,
        "tle_line1": "1 31987U 99025CPQ 25339.15318610  .00007661  00000+0  21804-2 0  9996",
        "tle_line2": "2 31987  99.0385 312.2778 0051063 180.3175 239.4113 14.44831177962600"
      },
      "geometry": {
        "type": "Point",
        "coordinates": [
          152.48826912350629,
          64.54592101903306
        ]
      }
    },
    {
      "type": "Feature",
      "properties": {
        "norad_id": 31989,
        "name": "FENGYUN 1C DEB",
        "group": "fengyun-1c-debris",
        "lat": -69.79438873306816,
        "lon": -165.20813940243036,
        "alt_km": 888.6693612758881,
        "timestamp": "2025-12-05T18:53:13.567070+00:00",
        "meta_object_name": "FENGYUN 1C DEB",
        "meta_object_id": "1999-025CPS",
        "meta_epoch": "2025-12-03T10:36:56.256192",
        "meta_mean_motion": 13.93565072,
        "meta_eccentricity": 0.01154408,
        "meta_inclination": 99.2145,
        "meta_ra_of_asc_node": 38.6271,
        "meta_arg_of_pericenter": 324.531,
        "meta_mean_anomaly": 52.2307,
        "meta_ephemeris_type": 0,
        "meta_classification_type": "U",
        "meta_norad_cat_id": 31989,
        "meta_element_set_no": 999,
        "meta_rev_at_epoch": 93588,
        "meta_bstar": 0.00073128492,
        "meta_mean_motion_dot": 9.68e-06,
        "meta_mean_motion_ddot": 0,
        "tle_line1": "1 31989U 99025CPS 25337.44231778  .00000968  00000+0  73128-3 0  9997",
        "tle_line2": "2 31989  99.2145  38.6271 0115440 324.5310  52.2307 13.93565072935885"
      },
      "geometry": {
        "type": "Point",
        "coordinates": [
          -165.20813940243036,
          -69.79438873306816
        ]
      }
    },
    {
      "type": "Feature",
      "properties": {
        "norad_id": 31990,
        "name": "FENGYUN 1C DEB",
        "group": "fengyun-1c-debris",
        "lat": 1.5739287423565111,
        "lon": -177.0000951226412,
        "alt_km": 871.5147249157708,
        "timestamp": "2025-12-05T18:53:13.567081+00:00",
        "meta_object_name": "FENGYUN 1C DEB",
        "meta_object_id": "1999-025CPT",
        "meta_epoch": "2025-12-03T07:41:30.849216",
        "meta_mean_motion": 13.57195401,
        "meta_eccentricity": 0.0259857,
        "meta_inclination": 99.1612,
        "meta_ra_of_asc_node": 0.4463,
        "meta_arg_of_pericenter": 208.6704,
        "meta_mean_anomaly": 166.2021,
        "meta_ephemeris_type": 0,
        "meta_classification_type": "U",
        "meta_norad_cat_id": 31990,
        "meta_element_set_no": 999,
        "meta_rev_at_epoch": 62644,
        "meta_bstar": 0.0003855,
        "meta_mean_motion_dot": 3.01e-06,
        "meta_mean_motion_ddot": 0,
        "tle_line1": "1 31990U 99025CPT 25337.32049594  .00000301  00000+0  38550-3 0  9990",
        "tle_line2": "2 31990  99.1612   0.4463 0259857 208.6704 166.2021 13.57195401626448"
      },
      "geometry": {
        "type": "Point",
        "coordinates": [
          -177.0000951226412,
          1.5739287423565111
        ]
      }
    }
  ]
}